EXPRESS-AMU1            
1 41191U 15082A   23137.04841182  .00000153  00000+0  00000+0 0  9993
2 41191   0.0159 313.1349 0002719  95.0236 239.8372  1.00270603 27205
GAOFEN 4                
1 41194U 15083A   23136.84146713 -.00000337  00000+0  00000+0 0  9997
2 41194   0.0734  76.8045 0003663 120.9619  85.1145  1.00268347 27229
BELINTERSAT-1           
1 41238U 16001A   23137.04216034  .00000105  00000+0  00000+0 0  9996
2 41238   0.0156 117.4485 0001243  29.9560 153.7438  1.00270799 26928
IRNSS-1E                
1 41241U 16003A   23136.91253951 -.00000297  00000+0  00000+0 0  9999
2 41241  30.7318  79.4768 0018587 181.5020  53.7110  1.00271337 26899
EUTELSAT 9B             
1 41310U 16005A   23137.03859637  .00000059  00000+0  00000+0 0  9990
2 41310   0.0549  78.8921 0001430 299.5730 238.9139  1.00269208 26806
SES-9                   
1 41380U 16013A   23136.45109280 -.00000349  00000+0  00000+0 0  9996
2 41380   0.0122 304.4820 0002288 125.4103  74.6977  1.00270168 26137
EUTELSAT 65 WEST A      
1 41382U 16014A   23137.02386552 -.00000279  00000+0  00000+0 0  9994
2 41382   0.0928  63.2028 0002145   1.4168 113.2554  1.00271342 26348
IRNSS-1F                
1 41384U 16015A   23137.09007642  .00000161  00000+0  00000+0 0  9993
2 41384   2.7147 135.2695 0019566 195.3843 328.7035  1.00271243 26369
BEIDOU-2 IGSO-6         
1 41434U 16021A   23136.73815294 -.00000188  00000+0  00000+0 0  9996
2 41434  58.5900  49.3978 0046566 225.7714 318.9201  1.00261332 26178
IRNSS-1G                
1 41469U 16027A   23136.84753108 -.00000334  00000+0  00000+0 0  9990
2 41469   2.6155 137.2319 0006729 313.1882 218.4638  1.00276480 25873
JCSAT-2B                
1 41471U 16028A   23137.03382698 -.00000168  00000+0  00000+0 0  9993
2 41471   0.0166 299.3786 0000747 110.6272 350.6429  1.00268241 25788
THAICOM 8               
1 41552U 16031A   23137.05236841 -.00000123  00000+0  00000+0 0  9998
2 41552   0.0698  53.3680 0004852 358.2969 280.1964  1.00270442 25487
INTELSAT 31 (IS-31)     
1 41581U 16035A   23137.01793830 -.00000153  00000+0  00000+0 0  9999
2 41581   0.0198 260.4809 0001738 329.3835 276.0007  1.00270941 25384
BEIDOU-2 G7             
1 41586U 16037A   23136.89466373 -.00000357  00000+0  00000+0 0  9996
2 41586   1.6207  66.3406 0008918 349.2160 251.2820  1.00277807 25489
ABS-2A (MONGOLSAT-1)    
1 41588U 16038A   23136.98002160 -.00000085  00000+0  00000+0 0  9997
2 41588   0.0235 281.3748 0001680  19.2720   1.3099  1.00267195 25388
EUTELSAT 117 WEST B     
1 41589U 16038B   23137.01358006 -.00000014  00000+0  00000+0 0  9998
2 41589   0.0091 149.3324 0000066 232.2802 100.7256  1.00272712 25400
BRISAT                  
1 41591U 16039A   23136.73313233 -.00000200  00000+0  00000+0 0  9990
2 41591   0.0239 285.9371 0002058 127.1803 235.4847  1.00268933 25303
ECHOSTAR 18             
1 41592U 16039B   23137.02465000 -.00000284  00000+0  00000+0 0  9996
2 41592   0.0182 297.0808 0001260 114.4466 130.4480  1.00269938 25312
MUOS-5                  
1 41622U 16041A   23136.58594236 -.00000155  00000+0  00000+0 0  9994
2 41622   4.8260 298.6154 0194191 242.9138 158.3982  1.00270656 25781
TIANTONG-1 1            
1 41725U 16048A   23137.11715906 -.00000321  00000+0  00000+0 0  9999
2 41725   2.2918  13.8434 0005117  11.3514 352.9777  1.00272325 24968
JCSAT-16                
1 41729U 16050A   23131.60098318 -.00000257  00000+0  00000+0 0  9993
2 41729   0.0862  91.9019 0001510 196.6325 249.9986  1.00270763 24716
USA 270                 
1 41744U 16052A   23127.48053883 -.00000029  00000+0  00000+0 0  9998
2 41744   1.2702  91.7708 0001770   4.8795 111.9248  1.00147804  7349
USA 271                 
1 41745U 16052B   23135.17823258  .00000148  00000+0  00000+0 0  9996
2 41745   1.2618  91.5282 0000045 251.8437 339.7368  1.00428659  7413
INTELSAT 36 (IS-36)     
1 41747U 16053A   23136.83541516 -.00000028  00000+0  00000+0 0  9995
2 41747   0.0119 338.2200 0001341   2.6433 262.6713  1.00272094 24649
INTELSAT 33E (IS-33E)   
1 41748U 16053B   23136.83375903  .00000046  00000+0  00000+0 0  9990
2 41748   0.0114 295.6680 0001555 143.2000 155.5469  1.00272324 24949
INSAT-3DR               
1 41752U 16054A   23136.83654831 -.00000080  00000+0  00000+0 0  9995
2 41752   0.1226  94.1693 0010931 182.3330 332.9335  1.00271510 24515
GSAT-18                 
1 41793U 16060A   23136.83654831 -.00000080  00000+0  00000+0 0  9997
2 41793   0.0684  98.1796 0001583 312.8132 198.4511  1.00270832 24234
SKY MUSTER 2 (NBN1B)    
1 41794U 16060B   23137.03938394 -.00000247  00000+0  00000+0 0  9995
2 41794   0.0146 285.0351 0001537 127.6256 340.8024  1.00270664 24279
HIMAWARI-9              
1 41836U 16064A   23136.84979736 -.00000278  00000+0  00000+0 0  9993
2 41836   0.0203  67.0527 0000796 358.2752 255.6605  1.00269249 23883
SHIJIAN-17 (SJ-17)      
1 41838U 16065A   23136.89723185 -.00000363  00000+0  00000+0 0  9991
2 41838   2.8736  85.9668 0001308 149.2592  77.4790  1.00273113 23904
GOES 16                 
1 41866U 16071A   23137.02186073 -.00000251  00000+0  00000+0 0  9990
2 41866   0.0199  30.1840 0000308  38.8769  98.0792  1.00271702 23790
TIANLIAN 1-04           
1 41869U 16072A   23136.64198194  .00000029  00000+0  00000+0 0  9990
2 41869   0.0312 305.1869 0025675 184.4593 152.4462  1.00275759 24003
WGS F8 (USA 272)        
1 41879U 16075A   23136.73313233 -.00000206  00000+0  00000+0 0  9995
2 41879   0.0102 340.9838 0000024  10.8620 296.0751  1.00270251 23511
FENGYUN 4A              
1 41882U 16077A   23137.08591093 -.00000333  00000+0  00000+0 0  9993
2 41882   0.1026 295.8490 0004018 214.4016 219.8583  1.00276623 23684
ECHOSTAR 19             
1 41893U 16079A   23136.51567417 -.00000141  00000+0  00000+0 0  9994
2 41893   0.0133 306.0002 0001148 109.2633 267.2374  1.00269439 23407
JCSAT-110A (JCSAT-15)   
1 41903U 16082A   23136.98655897 -.00000353  00000+0  00000+0 0  9996
2 41903   0.0206 295.8085 0000649  71.0180 332.8199  1.00265942 23481
STAR ONE D1             
1 41904U 16082B   23136.80508182 -.00000213  00000+0  00000+0 0  9997
2 41904   0.0083  84.5355 0001919 321.7218  33.8316  1.00270084 23466
TJS-2                   
1 41911U 17001A   23136.83506650 -.00000009  00000+0  00000+0 0  9991
2 41911   0.3929  87.3933 0004121 114.3136  39.6598  1.00272141 23420
SBIRS GEO-4 (USA 273)   
1 41937U 17004A   23136.80255404 -.00000149  00000+0  00000+0 0  9992
2 41937   1.7671 330.2173 0002029  73.8502  22.2945  1.00271132 23304
HISPASAT 36W-1          
1 41942U 17006A   23137.09632875 -.00000247  00000+0  00000+0 0  9992
2 41942   0.0048 303.9290 0001039 112.6977 176.5937  1.00271851 23228
TELKOM 3S               
1 41944U 17007A   23137.08035656 -.00000365  00000+0  00000+0 0  9999
2 41944   0.0148 288.7994 0002234 121.4411 331.2095  1.00271345 22919
INTELSAT 32E (IS-32E)   
1 41945U 17007B   23136.81318814 -.00000272  00000+0  00000+0 0  9997
2 41945   0.0142 328.3543 0000385 318.4858 196.9823  1.00269929 22935
ECHOSTAR 23             
1 42070U 17014A   23135.86798909 -.00000062  00000+0  00000+0 0  9993
2 42070   0.0176 283.2414 0001722 132.7495  19.9169  1.00273345 22606
WGS F9 (USA 275)        
1 42075U 17016A   23136.67606339 -.00000099  00000+0  00000+0 0  9995
2 42075   0.0125 286.8765 0000156 289.8486 248.7804  1.00270222 22594
SES-10                  
1 42432U 17017A   23135.37472727 -.00000278  00000+0  00000+0 0  9990
2 42432   0.0440  83.1944 0002757 341.0237 236.6292  1.00270490 22406
CHINASAT 16 (SJ-13)     
1 42662U 17018A   23135.97133017 -.00000357  00000+0  00000+0 0  9996
2 42662   0.0772  92.7119 0003829 145.2534  95.6671  1.00275136 22422
KOREASAT 7              
1 42691U 17023A   23137.08035656 -.00000364  00000+0  00000+0 0  9996
2 42691   0.0327  19.0156 0001486  13.9703 346.3716  1.00270086 22143
SGDC                    
1 42692U 17023B   23136.55797286 -.00000252  00000+0  00000+0 0  9998
2 42692   0.0183  51.6613 0002191   7.7795 300.5808  1.00270321 22102
GSAT-9                  
1 42695U 17024A   23136.88885146 -.00000289  00000+0  00000+0 0  9991
2 42695   0.0488 271.4123 0002541 103.9118 276.3577  1.00270624 22129
INMARSAT 5-F4           
1 42698U 17025A   23137.00605050  .00000073  00000+0  00000+0 0  9994
2 42698   0.0176 304.6501 0000638 288.8133  59.6409  1.00269257 21956
SES-15                  
1 42709U 17026A   23137.01113944  .00000057  00000+0  00000+0 0  9997
2 42709   0.0358  45.5721 0000198 354.5089  69.2405  1.00270403 22889
QZS-2 (MICHIBIKI-2)     
1 42738U 17028A   23123.69069192 -.00000213  00000+0  00000+0 0  9990
2 42738  41.2434 259.6243 0739670 270.7164  77.1331  1.00249103 21706
VIASAT-2                
1 42740U 17029A   23136.80787109 -.00000268  00000+0  00000+0 0  9996
2 42740   0.0159 279.1784 0000078 301.1403 234.8692  1.00271553 21886
EUTELSAT 172B           
1 42741U 17029B   23137.07110887 -.00000008  00000+0  00000+0 0  9992
2 42741   0.0569 146.0750 0000094 102.9190 183.1147  1.00271001 22414
GSAT-19                 
1 42747U 17031A   23137.04216034  .00000123  00000+0  00000+0 0  9996
2 42747   0.0161 269.5048 0007362 158.5210 229.5025  1.00272453 21831
ECHOSTAR 21             
1 42749U 17032A   23137.03885786  .00000059  00000+0  00000+0 0  9992
2 42749   3.2912 313.3194 0002283  94.1144 211.2875  1.00271160 21813
BULGARIASAT-1           
1 42801U 17038A   23136.75050215  .00000008  00000+0  00000+0 0  9990
2 42801   0.0093 336.8495 0002771  81.3367  88.0870  1.00272219 21527
HELLAS-SAT 3            
1 42814U 17040A   23136.82957512  .00000149  00000+0  00000+0 0  9997
2 42814   0.0601 335.0500 0005250  64.9855 171.9058  1.00274670 21510
GSAT-17                 
1 42815U 17040B   23137.12271620 -.00000260  00000+0  00000+0 0  9996
2 42815   0.0653 100.0553 0003070 211.5532  60.6309  1.00273028 21571
